{"type": "FeatureCollection", "features": [ {"type": "Feature", "properties": {"norad_id": 66504, "name": "STARLINK-35916", "group": "last-30-days", "lat": -40.49338348942331, "lon": 6.083471296360481, "alt_km": 445.2692038491723, "timestamp": "2025-12-13T22:39:28.443280+00:00", "meta": {"OBJECT_NAME": "STARLINK-35916", "OBJECT_ID": "2025-263V", "EPOCH": "2025-12-12T17:33:48.907584", "MEAN_MOTION": 15.40710087, "ECCENTRICITY": 0.00029138, "INCLINATION": 43.0006, "RA_OF_ASC_NODE": 126.6799, "ARG_OF_PERICENTER": 281.8112, "MEAN_ANOMALY": 78.2418, "EPHEMERIS_TYPE": 0, "CLASSIFICATION_TYPE": "U", "NORAD_CAT_ID": 66504, "ELEMENT_SET_NO": 999, "REV_AT_EPOCH": 554, "BSTAR": 0.0014947011, "MEAN_MOTION_DOT": 0.00062674, "MEAN_MOTION_DDOT": 0}, "tle": {"line1": "1 66504U 25263V   25346.73181606  .00062674  00000+0  14947-2 0  9992", "line2": "2 66504  43.0006 126.6799 0002913 281.8112  78.2418 15.40710087  5541"}}, "geometry": {"type": "Point", "coordinates": [6.083471296360481, -40.49338348942331]}}, {"type": "Feature", "properties": {"norad_id": 66505, "name": "STARLINK-34766", "group": "last-30-days", "lat": -17.442906421536975, "lon": -42.2539032967, "alt_km": 415.6871431957634, "timestamp": "2025-12-13T22:39:28.443290+00:00", "meta": {"OBJECT_NAME": "STARLINK-34766", "OBJECT_ID": "2025-263W", "EPOCH": "2025-12-12T17:56:57.882624", "MEAN_MOTION": 15.50613801, "ECCENTRICITY": 0.00016181, "INCLINATION": 42.9974, "RA_OF_ASC_NODE": 125.0394, "ARG_OF_PERICENTER": 278.9286, "MEAN_ANOMALY": 81.1391, "EPHEMERIS_TYPE": 0, "CLASSIFICATION_TYPE": "U", "NORAD_CAT_ID": 66505, "ELEMENT_SET_NO": 999, "REV_AT_EPOCH": 556, "BSTAR": 0.0019225717, "MEAN_MOTION_DOT": 0.00114249, "MEAN_MOTION_DDOT": 0}, "tle": {"line1": "1 66505U 25263W   25346.74789216  .00114249  00000+0  19226-2 0  9996", "line2": "2 66505  42.9974 125.0394 0001618 278.9286  81.1391 15.50613801  5560"}}, "geometry": {"type": "Point", "coordinates": [-42.2539032967, -17.442906421536975]}}, {"type": "Feature", "properties": {"norad_id": 66506, "name": "STARLINK-34765", "group": "last-30-days", "lat": -18.615232515690447, "lon": -40.77153981104244, "alt_km": 415.84388968603344, "timestamp": "2025-12-13T22:39:28.443303+00:00", "meta": {"OBJECT_NAME": "STARLINK-34765", "OBJECT_ID": "2025-263X", "EPOCH": "2025-12-12T17:56:28.118688", "MEAN_MOTION": 15.50614072, "ECCENTRICITY": 0.00017352, "INCLINATION": 42.9977, "RA_OF_ASC_NODE": 125.0386, "ARG_OF_PERICENTER": 277.9312, "MEAN_ANOMALY": 82.1351, "EPHEMERIS_TYPE": 0, "CLASSIFICATION_TYPE": "U", "NORAD_CAT_ID": 66506, "ELEMENT_SET_NO": 999, "REV_AT_EPOCH": 556, "BSTAR": 0.0016350545, "MEAN_MOTION_DOT": 0.00096897, "MEAN_MOTION_DDOT": 0}, "tle": {"line1": "1 66506U 25263X   25346.74754767  .00096897  00000+0  16351-2 0  9994", "line2": "2 66506  42.9977 125.0386 0001735 277.9312  82.1351 15.50614072  5562"}}, "geometry": {"type": "Point", "coordinates": [-40.77153981104244, -18.615232515690447]}}, {"type": "Feature", "properties": {"norad_id": 66507, "name": "STARLINK-34767", "group": "last-30-days", "lat": 23.930579615385483, "lon": -90.2462097511714, "alt_km": 441.0913456890212, "timestamp": "2025-12-13T22:39:28.443316+00:00", "meta": {"OBJECT_NAME": "STARLINK-34767", "OBJECT_ID": "2025-263Y", "EPOCH": "2025-12-13T06:00:02.000160", "MEAN_MOTION": 15.4067849, "ECCENTRICITY": 0.00016162, "INCLINATION": 42.9998, "RA_OF_ASC_NODE": 122.1939, "ARG_OF_PERICENTER": 270.6831, "MEAN_ANOMALY": 338.6522, "EPHEMERIS_TYPE": 0, "CLASSIFICATION_TYPE": "U", "NORAD_CAT_ID": 66507, "ELEMENT_SET_NO": 999, "REV_AT_EPOCH": 571, "BSTAR": -0.00022218246, "MEAN_MOTION_DOT": -9.566e-05, "MEAN_MOTION_DDOT": 0}, "tle": {"line1": "1 66507U 25263Y   25347.25002315 -.00009566  00000+0 -22218-3 0  9996", "line2": "2 66507  42.9998 122.1939 0001616 270.6831 338.6522 15.40678490  5711"}}, "geometry": {"type": "Point", "coordinates": [-90.2462097511714, 23.930579615385483]}}, {"type": "Feature", "properties": {"norad_id": 66508, "name": "STARLINK-35608", "group": "last-30-days", "lat": -8.052322228493654, "lon": -53.18969846783486, "alt_km": 438.5052485499946, "timestamp": "2025-12-13T22:39:28.443326+00:00", "meta": {"OBJECT_NAME": "STARLINK-35608", "OBJECT_ID": "2025-263Z", "EPOCH": "2025-12-13T06:00:02.000160", "MEAN_MOTION": 15.45769502, "ECCENTRICITY": 0.00012454, "INCLINATION": 43.0004, "RA_OF_ASC_NODE": 122.0998, "ARG_OF_PERICENTER": 262.2952, "MEAN_ANOMALY": 26.4368, "EPHEMERIS_TYPE": 0, "CLASSIFICATION_TYPE": "U", "NORAD_CAT_ID": 66508, "ELEMENT_SET_NO": 999, "REV_AT_EPOCH": 571, "BSTAR": -0.045838338, "MEAN_MOTION_DOT": -0.02023967, "MEAN_MOTION_DDOT": 0}, "tle": {"line1": "1 66508U 25263Z   25347.25002315 -.02023967  00000+0 -45838-1 0  9991", "line2": "2 66508  43.0004 122.0998 0001245 262.2952  26.4368 15.45769502  5715"}}, "geometry": {"type": "Point", "coordinates": [-53.18969846783486, -8.052322228493654]}}, {"type": "Feature", "properties": {"norad_id": 66509, "name": "STARLINK-35598", "group": "last-30-days", "lat": -29.002175190355985, "lon": -25.49913884537385, "alt_km": 413.7877858982356, "timestamp": "2025-12-13T22:39:28.443337+00:00", "meta": {"OBJECT_NAME": "STARLINK-35598", "OBJECT_ID": "2025-263AA", "EPOCH": "2025-12-12T17:51:59.965920", "MEAN_MOTION": 15.50649033, "ECCENTRICITY": 0.00053458, "INCLINATION": 42.9978, "RA_OF_ASC_NODE": 125.0127, "ARG_OF_PERICENTER": 249.8258, "MEAN_ANOMALY": 110.2028, "EPHEMERIS_TYPE": 0, "CLASSIFICATION_TYPE": "U", "NORAD_CAT_ID": 66509, "ELEMENT_SET_NO": 999, "REV_AT_EPOCH": 556, "BSTAR": 0.0015660019, "MEAN_MOTION_DOT": 0.00092897, "MEAN_MOTION_DDOT": 0}, "tle": {"line1": "1 66509U 25263AA  25346.74444405  .00092897  00000+0  15660-2 0  9990", "line2": "2 66509  42.9978 125.0127 0005345 249.8258 110.2028 15.50649033  5566"}}, "geometry": {"type": "Point", "coordinates": [-25.49913884537385, -29.002175190355985]}}, {"type": "Feature", "properties": {"norad_id": 66510, "name": "STARLINK-35600", "group": "last-30-days", "lat": -25.711683159288178, "lon": -30.875404937775226, "alt_km": 416.48656361405574, "timestamp": "2025-12-13T22:39:28.443347+00:00", "meta": {"OBJECT_NAME": "STARLINK-35600", "OBJECT_ID": "2025-263AB", "EPOCH": "2025-12-12T17:53:30.772320", "MEAN_MOTION": 15.50611887, "ECCENTRICITY": 0.00013691, "INCLINATION": 42.9963, "RA_OF_ASC_NODE": 125.0214, "ARG_OF_PERICENTER": 302.8543, "MEAN_ANOMALY": 57.2185, "EPHEMERIS_TYPE": 0, "CLASSIFICATION_TYPE": "U", "NORAD_CAT_ID": 66510, "ELEMENT_SET_NO": 999, "REV_AT_EPOCH": 556, "BSTAR": 0.0020880843, "MEAN_MOTION_DOT": 0.00124265, "MEAN_MOTION_DDOT": 0}, "tle": {"line1": "1 66510U 25263AB  25346.74549505  .00124265  00000+0  20881-2 0  9995", "line2": "2 66510  42.9963 125.0214 0001369 302.8543  57.2185 15.50611887  5568"}}, "geometry": {"type": "Point", "coordinates": [-30.875404937775226, -25.711683159288178]}}, {"type": "Feature", "properties": {"norad_id": 66511, "name": "STARLINK-35444", "group": "last-30-days", "lat": -27.84933679682615, "lon": -27.45654721832436, "alt_km": 416.8724460938902, "timestamp": "2025-12-13T22:39:28.443357+00:00", "meta": {"OBJECT_NAME": "STARLINK-35444", "OBJECT_ID": "2025-263AC", "EPOCH": "2025-12-12T17:52:31.597824", "MEAN_MOTION": 15.50601736, "ECCENTRICITY": 9.972e-05, "INCLINATION": 42.9961, "RA_OF_ASC_NODE": 125.0166, "ARG_OF_PERICENTER": 316.6699, "MEAN_ANOMALY": 43.4083, "EPHEMERIS_TYPE": 0, "CLASSIFICATION_TYPE": "U", "NORAD_CAT_ID": 66511, "ELEMENT_SET_NO": 999, "REV_AT_EPOCH": 556, "BSTAR": 0.0018978233, "MEAN_MOTION_DOT": 0.00112702, "MEAN_MOTION_DDOT": 0}, "tle": {"line1": "1 66511U 25263AC  25346.74481016  .00112702  00000+0  18978-2 0  9995", "line2": "2 66511  42.9961 125.0166 0000997 316.6699  43.4083 15.50601736  5560"}}, "geometry": {"type": "Point", "coordinates": [-27.45654721832436, -27.84933679682615]}}, {"type": "Feature", "properties": {"norad_id": 66512, "name": "STARLINK-35366", "group": "last-30-days", "lat": -29.96491772824454, "lon": -23.79132202500135, "alt_km": 416.47143573185076, "timestamp": "2025-12-13T22:39:28.443368+00:00", "meta": {"OBJECT_NAME": "STARLINK-35366", "OBJECT_ID": "2025-263AD", "EPOCH": "2025-12-12T17:51:31.717440", "MEAN_MOTION": 15.50629709, "ECCENTRICITY": 0.00023747, "INCLINATION": 43.0001, "RA_OF_ASC_NODE": 125.0098, "ARG_OF_PERICENTER": 292.0069, "MEAN_ANOMALY": 68.0538, "EPHEMERIS_TYPE": 0, "CLASSIFICATION_TYPE": "U", "NORAD_CAT_ID": 66512, "ELEMENT_SET_NO": 999, "REV_AT_EPOCH": 556, "BSTAR": 0.0015483042, "MEAN_MOTION_DOT": 0.00091731, "MEAN_MOTION_DDOT": 0}, "tle": {"line1": "1 66512U 25263AD  25346.74411710  .00091731  00000+0  15483-2 0  9996", "line2": "2 66512  43.0001 125.0098 0002374 292.0069  68.0538 15.50629709  5569"}}, "geometry": {"type": "Point", "coordinates": [-23.79132202500135, -29.96491772824454]}}, {"type": "Feature", "properties": {"norad_id": 66513, "name": "STARLINK-35692", "group": "last-30-days", "lat": -26.76881292837107, "lon": -29.221534654144413, "alt_km": 416.473547535682, "timestamp": "2025-12-13T22:39:28.443378+00:00", "meta": {"OBJECT_NAME": "STARLINK-35692", "OBJECT_ID": "2025-263AE", "EPOCH": "2025-12-12T20:58:31.218816", "MEAN_MOTION": 15.50638121, "ECCENTRICITY": 0.00017682, "INCLINATION": 43.0003, "RA_OF_ASC_NODE": 124.2658, "ARG_OF_PERICENTER": 293.0905, "MEAN_ANOMALY": 66.9769, "EPHEMERIS_TYPE": 0, "CLASSIFICATION_TYPE": "U", "NORAD_CAT_ID": 66513, "ELEMENT_SET_NO": 999, "REV_AT_EPOCH": 558, "BSTAR": 0.0017244336, "MEAN_MOTION_DOT": 0.00102372, "MEAN_MOTION_DDOT": 0}, "tle": {"line1": "1 66513U 25263AE  25346.87397244  .00102372  00000+0  17244-2 0  9997", "line2": "2 66513  43.0003 124.2658 0001768 293.0905  66.9769 15.50638121  5584"}}, "geometry": {"type": "Point", "coordinates": [-29.221534654144413, -26.76881292837107]}}]}